[{"OBJECT_NAME":"STARLINK-32413","OBJECT_ID":"2024-187S","EPOCH":"2026-03-09T06:17:15.794304","MEAN_MOTION":15.30183449,"ECCENTRICITY":0.00014124,"INCLINATION":53.1606,"RA_OF_ASC_NODE":67.3298,"ARG_OF_PERICENTER":80.6883,"MEAN_ANOMALY":279.4278,"EPHEMERIS_TYPE":0,"CLASSIFICATION_TYPE":"U","NORAD_CAT_ID":61590,"ELEMENT_SET_NO":999,"REV_AT_EPOCH":7901,"BSTAR":6.3342625e-5,"MEAN_MOTION_DOT":1.516e-5,"MEAN_MOTION_DDOT":0},{"OBJECT_NAME":"USA 121","OBJECT_ID":"1996-029C","EPOCH":"2026-03-09T12:20:41.273376","MEAN_MOTION":13.45884179,"ECCENTRICITY":0.08466392,"INCLINATION":63.3189,"RA_OF_ASC_NODE":92.3686,"ARG_OF_PERICENTER":47.9314,"MEAN_ANOMALY":319.0644,"EPHEMERIS_TYPE":0,"CLASSIFICATION_TYPE":"U","NORAD_CAT_ID":23908,"ELEMENT_SET_NO":999,"REV_AT_EPOCH":8995,"BSTAR":0.00032043182,"MEAN_MOTION_DOT":1.829e-5,"MEAN_MOTION_DDOT":0}]
